MONOLITH                
1 49052U 21068A   26068.54548855  .00008348  00000+0  53656-3 0  9993
2 49052  37.0220 141.2957 0002679 131.6464 228.4511 15.08010119252226
STARLINK-3779           
1 52281U 22041W   26068.80488567 -.00000194  00000+0  58758-5 0  9997
2 52281  53.2167 108.6020 0001294  86.7137 273.4003 15.08836079214383
